NORAD_CAT_ID,OBJECT_NAME,OBJECT_TYPE,EPOCH,MEAN_MOTION,ECCENTRICITY,INCLINATION,RA_OF_ASC_NODE,ARG_OF_PERICENTER,MEAN_ANOMALY,BSTAR,MEAN_MOTION_DOT,MEAN_MOTION_DDOT,TLE_LINE0,TLE_LINE1,TLE_LINE2,SEMIMAJOR_AXIS,PERIOD,APOGEE,PERIGEE,DECAYED
55393.0,STARLINK-4786,PAYLOAD,2024-06-11 13:29:12,14.98326268,0.0002815,69.9996,228.2107,270.011,90.0726,0.00014179,1.599e-05,0.0,0 STARLINK-4786,1 55393U 23014C   24163.56195228  .00001599  00000-0  14179-3 0  9998,2 55393  69.9996 228.2107 0002815 270.0110  90.0726 14.98326268 76774,6950.204,96.107,574.026,570.113,0.0
55393.0,STARLINK-4786,PAYLOAD,2024-06-12 05:30:33,14.98330014,0.0002991,69.9993,226.5274,273.6837,86.398,-4.8267e-05,-6.69e-06,0.0,0 STARLINK-4786,1 55393U 23014C   24164.22955537 -.00000669  00000-0 -48267-4 0  9994,2 55393  69.9993 226.5274 0002991 273.6837  86.3980 14.98330014 76872,6950.193,96.107,574.137,569.979,0.0
55393.0,STARLINK-4786,PAYLOAD,2024-06-12 11:55:06,14.98325445,0.0003019,69.9994,225.8534,272.1312,87.9501,-9.4932e-05,-1.225e-05,0.0,0 STARLINK-4786,1 55393U 23014C   24164.49659946 -.00001225  00000-0 -94932-4 0  9997,2 55393  69.9994 225.8534 0003019 272.1312  87.9501 14.98325445 75976,6950.207,96.107,574.17,569.974,0.0
55393.0,STARLINK-4786,PAYLOAD,2024-06-12 13:31:14,14.98324315,0.0003029,69.9993,225.6856,271.9887,88.0925,-9.4521e-05,-1.22e-05,0.0,0 STARLINK-4786,1 55393U 23014C   24164.56336012 -.00001220  00000-0 -94521-4 0  9990,2 55393  69.9993 225.6856 0003029 271.9887  88.0925 14.98324315 76928,6950.21,96.107,574.181,569.97,0.0
55393.0,STARLINK-4786,PAYLOAD,2024-06-13 05:32:34,14.98327225,0.0003276,69.9988,224.0009,271.3424,88.736,7.1123e-05,7.56e-06,0.0,0 STARLINK-4786,1 55393U 23014C   24165.23095340  .00000756  00000-0  71123-4 0  9995,2 55393  69.9988 224.0009 0003276 271.3424  88.7360 14.98327225 76080,6950.201,96.107,574.343,569.79,0.0
55393.0,STARLINK-4786,PAYLOAD,2024-06-13 13:33:14,14.98331549,0.000317,69.9989,223.159,268.4869,91.5927,1.4091e-05,7.5e-07,0.0,0 STARLINK-4786,1 55393U 23014C   24165.56475222  .00000075  00000-0  14091-4 0  9997,2 55393  69.9989 223.1590 0003170 268.4869  91.5927 14.98331549 77074,6950.188,96.107,574.256,569.85,0.0
55393.0,STARLINK-4786,PAYLOAD,2024-06-14 13:35:15,14.98332926,0.000333,69.9986,220.635,269.9194,90.1583,0.00010732,1.188e-05,0.0,0 STARLINK-4786,1 55393U 23014C   24166.56614766  .00001188  00000-0  10732-3 0  9999,2 55393  69.9986 220.6350 0003330 269.9194  90.1583 14.98332926 77222,6950.184,96.107,574.363,569.734,0.0
55393.0,STARLINK-4786,PAYLOAD,2024-06-15 13:37:16,14.98333029,0.000333,69.9986,218.1104,269.9843,90.0934,4.6845e-06,-3.7e-07,0.0,0 STARLINK-4786,1 55393U 23014C   24167.56754890 -.00000037  00000-0  46845-5 0  9992,2 55393  69.9986 218.1104 0003330 269.9843  90.0934 14.98333029 77372,6950.184,96.107,574.363,569.734,0.0
55393.0,STARLINK-4786,PAYLOAD,2024-06-16 13:39:16,14.98333787,0.0003192,69.9988,215.5864,268.502,91.5774,-1.8028e-07,-9.5e-07,0.0,0 STARLINK-4786,1 55393U 23014C   24168.56894639 -.00000095  00000-0 -18028-6 0  9997,2 55393  69.9988 215.5864 0003192 268.5020  91.5774 14.98333787 77522,6950.181,96.107,574.265,569.828,0.0
55393.0,STARLINK-4786,PAYLOAD,2024-06-16 20:03:49,14.98330201,0.0003187,69.9989,214.913,268.9827,91.0967,-3.454e-05,-5.05e-06,0.0,0 STARLINK-4786,1 55393U 23014C   24168.83598914 -.00000505  00000-0 -34540-4 0  9995,2 55393  69.9989 214.9130 0003187 268.9827  91.0967 14.98330201 77566,6950.192,96.107,574.272,569.842,0.0
55393.0,STARLINK-4786,PAYLOAD,2024-06-17 20:05:50,14.98328351,0.0003179,69.9987,212.388,269.4973,90.5821,-1.9754e-07,-9.5e-07,0.0,0 STARLINK-4786,1 55393U 23014C   24169.83739072 -.00000095  00000-0 -19754-6 0  9994,2 55393  69.9987 212.3880 0003179 269.4973  90.5821 14.98328351 77710,6950.198,96.107,574.272,569.854,0.0
55393.0,STARLINK-4786,PAYLOAD,2024-06-18 12:07:10,14.98334125,0.0003238,69.9985,210.7041,268.5943,91.4846,3.7868e-05,3.59e-06,0.0,0 STARLINK-4786,1 55393U 23014C   24170.50498474  .00000359  00000-0  37868-4 0  9993,2 55393  69.9985 210.7041 0003238 268.5943  91.4846 14.98334125 76871,6950.18,96.107,574.296,569.795,0.0
55393.0,STARLINK-4786,PAYLOAD,2024-06-18 20:07:51,14.98332708,0.0003505,69.9979,209.8618,266.0136,94.0622,-9.3445e-06,-2.05e-06,0.0,0 STARLINK-4786,1 55393U 23014C   24170.83878520 -.00000205  00000-0 -93445-5 0  9999,2 55393  69.9979 209.8618 0003505 266.0136  94.0622 14.98332708 77863,6950.185,96.107,574.486,569.613,0.0
55393.0,STARLINK-4786,PAYLOAD,2024-06-19 04:08:31,14.9832475,0.0003379,69.998,209.0198,270.8204,89.2568,3.6632e-05,3.44e-06,0.0,0 STARLINK-4786,1 55393U 23014C   24171.17258992  .00000344  00000-0  36632-4 0  9998,2 55393  69.9980 209.0198 0003379 270.8204  89.2568 14.98324750 76972,6950.209,96.107,574.423,569.726,0.0
55393.0,STARLINK-4786,PAYLOAD,2024-06-19 12:09:11,14.98334199,0.0003334,69.9981,208.1785,272.1927,87.8851,-7.4689e-05,-9.84e-06,0.0,0 STARLINK-4786,1 55393U 23014C   24171.50638756 -.00000984  00000-0 -74689-4 0  9991,2 55393  69.9981 208.1785 0003334 272.1927  87.8851 14.98334199 77960,6950.18,96.107,574.362,569.728,0.0
55393.0,STARLINK-4786,PAYLOAD,2024-06-20 12:11:12,14.98332846,0.0003428,69.9981,205.6538,271.0975,88.9792,-2.447e-05,-3.85e-06,0.0,0 STARLINK-4786,1 55393U 23014C   24172.50778696 -.00000385  00000-0 -24470-4 0  9998,2 55393  69.9981 205.6538 0003428 271.0975  88.9792 14.98332846 78114,6950.184,96.107,574.432,569.667,0.0
55393.0,STARLINK-4786,PAYLOAD,2024-06-20 23:24:09,14.98331463,0.0003415,69.9981,204.4753,271.2131,88.8636,9.9776e-06,2.6e-07,0.0,0 STARLINK-4786,1 55393U 23014C   24172.97510632  .00000026  00000-0  99776-5 0  9995,2 55393  69.9981 204.4753 0003415 271.2131  88.8636 14.98331463 77245,6950.188,96.107,574.427,569.68,0.0
55393.0,STARLINK-4786,PAYLOAD,2024-06-21 12:13:13,14.9833196,0.0003412,69.9984,203.1291,270.7103,89.3665,4.9011e-05,4.92e-06,0.0,0 STARLINK-4786,1 55393U 23014C   24173.50918458  .00000492  00000-0  49011-4 0  9996,2 55393  69.9984 203.1291 0003412 270.7103  89.3665 14.98331960 78264,6950.187,96.107,574.423,569.68,0.0
55393.0,STARLINK-4786,PAYLOAD,2024-06-22 04:14:34,14.98328792,0.0003356,69.9987,201.4461,270.2894,89.7881,2.5682e-06,-6.2e-07,0.0,0 STARLINK-4786,1 55393U 23014C   24174.17678771 -.00000062  00000-0  25682-5 0  9994,2 55393  69.9987 201.4461 0003356 270.2894  89.7881 14.98328792 77426,6950.197,96.107,574.394,569.729,0.0
55393.0,STARLINK-4786,PAYLOAD,2024-06-22 12:15:14,14.98327813,0.0003383,69.9989,200.6043,270.8388,89.2383,-7.4235e-06,-1.82e-06,0.0,0 STARLINK-4786,1 55393U 23014C   24174.51058899 -.00000182  00000-0 -74235-5 0  9997,2 55393  69.9989 200.6043 0003383 270.8388  89.2383 14.98327813 78414,6950.2,96.107,574.416,569.713,0.0
55393.0,STARLINK-4786,PAYLOAD,2024-06-23 04:16:35,14.98332526,0.0003419,69.999,198.921,270.5691,89.5077,5.963e-06,-2.2e-07,0.0,0 STARLINK-4786,1 55393U 23014C   24175.17818511 -.00000022  00000-0  59630-5 0  9999,2 55393  69.9990 198.9210 0003419 270.5691  89.5077 14.98332526 77571,6950.185,96.107,574.426,569.674,0.0
55393.0,STARLINK-4786,PAYLOAD,2024-06-23 10:41:07,14.98332088,0.000343,69.9991,198.2478,271.1676,88.909,1.5751e-06,-7.4e-07,0.0,0 STARLINK-4786,1 55393U 23014C   24175.44522519 -.00000074  00000-0  15751-5 0  9992,2 55393  69.9991 198.2478 0003430 271.1676  88.9090 14.98332088 78554,6950.186,96.107,574.435,569.668,0.0
55393.0,STARLINK-4786,PAYLOAD,2024-06-24 04:18:36,14.98328941,0.000349,69.9991,196.3961,268.3858,91.6902,2.9915e-05,2.64e-06,0.0,0 STARLINK-4786,1 55393U 23014C   24176.17958539  .00000264  00000-0  29915-4 0  9994,2 55393  69.9991 196.3961 0003490 268.3858  91.6902 14.98328941 77720,6950.196,96.107,574.487,569.636,0.0
55393.0,STARLINK-4786,PAYLOAD,2024-06-24 10:43:08,14.98329411,0.000348,69.9991,195.7229,268.146,91.9301,3.2809e-05,2.98e-06,0.0,0 STARLINK-4786,1 55393U 23014C   24176.44662504  .00000298  00000-0  32809-4 0  9991,2 55393  69.9991 195.7229 0003480 268.1460  91.9301 14.98329411 78704,6950.195,96.107,574.478,569.641,0.0
55393.0,STARLINK-4786,PAYLOAD,2024-06-25 04:20:37,14.98330947,0.0003416,69.9992,193.8719,266.068,94.0089,9.1558e-07,-8.2e-07,0.0,0 STARLINK-4786,1 55393U 23014C   24177.18098454 -.00000082  00000-0  91558-6 0  9990,2 55393  69.9992 193.8719 0003416 266.0680  94.0089 14.98330947 77878,6950.19,96.107,574.429,569.681,0.0
55393.0,STARLINK-4786,PAYLOAD,2024-06-25 10:45:09,14.98330028,0.0003431,69.9992,193.1987,265.9654,94.1113,-9.7665e-06,-2.1e-06,0.0,0 STARLINK-4786,1 55393U 23014C   24177.44802530 -.00000210  00000-0 -97665-5 0  9995,2 55393  69.9992 193.1987 0003431 265.9654  94.1113 14.98330028 78852,6950.193,96.107,574.442,569.673,0.0
55393.0,STARLINK-4786,PAYLOAD,2024-06-26 04:22:37,14.9833202,0.0003511,69.9989,191.3469,267.4814,92.5943,2.5089e-05,2.06e-06,0.0,0 STARLINK-4786,1 55393U 23014C   24178.18238222  .00000206  00000-0  25089-4 0  9991,2 55393  69.9989 191.3469 0003511 267.4814  92.5943 14.98332020 78023,6950.187,96.107,574.492,569.611,0.0
55393.0,STARLINK-4786,PAYLOAD,2024-06-26 10:47:09,14.9833322,0.0003511,69.9989,190.6736,267.6455,92.4302,3.6848e-05,3.47e-06,0.0,0 STARLINK-4786,1 55393U 23014C   24178.44942070  .00000347  00000-0  36848-4 0  9994,2 55393  69.9989 190.6736 0003511 267.6455  92.4302 14.98333220 79005,6950.183,96.107,574.488,569.608,0.0
55393.0,STARLINK-4786,PAYLOAD,2024-06-27 04:24:38,14.98328332,0.0003424,69.9991,188.8228,264.0895,95.9874,1.4764e-06,-7.5e-07,0.0,0 STARLINK-4786,1 55393U 23014C   24179.18378446 -.00000075  00000-0  14764-5 0  9999,2 55393  69.9991 188.8228 0003424 264.0895  95.9874 14.98328332 78172,6950.198,96.107,574.443,569.683,0.0
55393.0,STARLINK-4786,PAYLOAD,2024-06-27 10:49:11,14.98327344,0.0003512,69.9989,188.1486,269.4826,90.593,-9.8365e-06,-2.1e-06,0.0,0 STARLINK-4786,1 55393U 23014C   24179.45082606 -.00000210  00000-0 -98365-5 0  9990,2 55393  69.9989 188.1486 0003512 269.4826  90.5930 14.98327344 79154,6950.201,96.107,574.507,569.625,0.0
